DUCHIFAT-3              
1 44854U 19089C   24115.09871614  .00025669  00000+0  13695-2 0  9994
2 44854  36.9591  16.9302 0008470 345.8765  14.1744 15.14349082239998
M2 PATHFINDER           
1 45727U 20037E   24115.04107298  .00007314  00000+0  64580-3 0  9991
2 45727  97.7744 291.7880 0009944 309.7689  50.2656 14.96633073207845
NETSAT-4                
1 46504U 20068U   24114.82970640  .00019105  00000+0  10595-2 0  9990
2 46504  97.8024  70.5715 0010144 176.1705 183.9605 15.13779795195947
NETSAT-3                
1 46505U 20068V   24114.86128056  .00017647  00000+0  99244-3 0  9999
2 46505  97.8002  70.1762 0009204 182.6694 177.4489 15.13303457195942
NETSAT-1                
1 46506U 20068W   24114.85642449  .00013540  00000+0  79281-3 0  9993
2 46506  97.8017  69.7597 0007262 192.6639 167.4410 15.11926559195913
NETSAT-2                
1 46507U 20068X   24114.84367644  .00018310  00000+0  10187-2 0  9993
2 46507  97.8005  70.2355 0006684 195.8174 164.2848 15.13697647195898
WILDTRACKCUBE-SIMBA     
1 47941U 21022K   24115.21259330  .00023283  00000+0  10899-2 0  9996
2 47941  97.4666  12.5150 0015024 340.7879  19.2788 15.19636727170267
BEESAT-6                
1 47957U 21022AB  24114.54245191  .00172911  00000+0  29802-2 0  9995
2 47957  97.4504  20.3193 0003409 319.7750  40.3249 15.50416320170545
SMOG-1                  
1 47964U 21022AJ  24115.15795262  .00161035  00000+0  28048-2 0  9996
2 47964  97.4692  24.0216 0003490 272.7381  87.3471 15.50161690169820
BCCSAT-1                
1 48041U 21022AK  24114.70885453  .00086510  00000+0  21266-2 0  9994
2 48041  97.4689  20.3683 0004301 295.6794  64.4008 15.40309940169524
BEESAT-5                
1 48083U 21022AM  24114.72100589  .00222338  00000+0  29634-2 0  9999
2 48083  97.4275  21.4908 0001140 292.8046  67.3088 15.57357085169813
BEESAT-7                
1 48084U 21022AN  24114.26700286  .00123738  00000+0  24104-2 0  9990
2 48084  97.4640  20.2911 0005238 306.0484  54.0279 15.47077766169232
BEESAT-8                
1 48085U 21022AP  24114.51154916  .00044266  00000+0  15701-2 0  9993
2 48085  97.4813  16.1635 0010855 330.1496  29.9124 15.28881179169515
LEDSAT                  
1 49069U 21073D   24115.14202278  .00028245  00000+0  12067-2 0  9998
2 49069  97.4409 186.7096 0021310 114.2142 246.1324 15.22620918148227
SITRO-AIS 5 (KATYS)     
1 57176U 23091L   24115.21027113  .00014351  00000+0  94874-3 0  9999
2 57176  97.6183 167.8838 0016422 308.4289  51.5464 15.07379313 45364
SITRO-AIS 6 (CHIRKIN)   
1 57192U 23091AC  24115.13122473  .00013621  00000+0  89948-3 0  9998
2 57192  97.6179 167.8270 0016120 308.7382  51.2404 15.07438005 45353
SITRO-AIS 8 (ANOKHIN)   
1 57193U 23091AD  24115.17562039  .00015408  00000+0  10101-2 0  9998
2 57193  97.6167 167.9148 0016184 308.7732  51.2050 15.07675988 45366
SITRO-AIS 7 (FARTUSHNIY)
1 57194U 23091AE  24115.13473772  .00013328  00000+0  88126-3 0  9992
2 57194  97.6180 167.8167 0016017 309.4279  50.5530 15.07397233 45359
SITRO-AIS 10 (BURDAEV)  
1 57199U 23091AK  24115.20887759  .00016951  00000+0  10619-2 0  9995
2 57199  97.6195 168.6925 0010904 297.1305  62.8812 15.09385858 45411
SITRO-AIS 9 (SHCHUKIN)  
1 57201U 23091AM  24115.14044961  .00015860  00000+0  99408-3 0  9994
2 57201  97.6189 168.6098 0010855 297.2821  62.7302 15.09380847 45403
SITRO-AIS 12 (SMIRENNIY)
1 57204U 23091AQ  24115.17583160  .00016548  00000+0  10320-2 0  9998
2 57204  97.6189 168.7546 0011048 290.0181  69.9858 15.09553642 45411
SITRO-AIS 11 (SHEFFER)  
1 57208U 23091AU  24115.16440218  .00018552  00000+0  11538-2 0  9996
2 57208  97.6191 168.7600 0010897 290.3147  69.6911 15.09630748 45415
SITRO-AIS 29            
1 59052U 24039B   24115.14493234  .00038858  00000+0  15476-2 0  9998
2 59052  97.3892  77.7119 0021152  54.0225 306.2970 15.24918321  8351
SITRO-AIS 30            
1 59053U 24039C   24115.20999729  .00039136  00000+0  15567-2 0  9997
2 59053  97.3891  77.7753 0021245  54.4866 305.8350 15.24957408  8359
SITRO-AIS 31            
1 59054U 24039D   24115.14140378  .00038939  00000+0  15452-2 0  9992
2 59054  97.3890  77.7145 0021098  54.6338 305.6868 15.25041185  8366
SITRO-AIS 33            
1 59055U 24039E   24115.13782234  .00037653  00000+0  14899-2 0  9991
2 59055  97.3892  77.7210 0020866  55.3045 305.0155 15.25149013  8358
SITRO-AIS 35            
1 59056U 24039F   24115.20143720  .00039028  00000+0  15417-2 0  9996
2 59056  97.3891  77.7875 0020665  55.2659 305.0521 15.25201215  8363
SITRO-AIS 32            
1 59057U 24039G   24115.13794347  .00037452  00000+0  14836-2 0  9999
2 59057  97.3891  77.7204 0020647  55.5312 304.7872 15.25117400  8355
SITRO-AIS 34            
1 59058U 24039H   24115.20228339  .00036067  00000+0  14271-2 0  9995
2 59058  97.3892  77.7879 0020829  55.1481 305.1712 15.25160021  8366
SITRO-AIS 36            
1 59059U 24039J   24115.19908854  .00037847  00000+0  14928-2 0  9997
2 59059  97.3890  77.7914 0020351  55.4091 304.9063 15.25264535  8366
SITRO-AIS 49            
1 59060U 24039K   24115.19837354  .00039273  00000+0  15488-2 0  9992
2 59060  97.3891  77.7919 0020344  55.1882 305.1267 15.25261190  8364
SITRO-AIS 50            
1 59061U 24039L   24115.19570503  .00040318  00000+0  15837-2 0  9993
2 59061  97.3890  77.7955 0020322  55.4696 304.8457 15.25388706  8366
SITRO-AIS 51            
1 59062U 24039M   24115.19478238  .00039064  00000+0  15346-2 0  9997
2 59062  97.3891  77.7969 0020246  55.2256 305.0884 15.25394170  8367
SITRO-AIS 52            
1 59063U 24039N   24115.19205276  .00040001  00000+0  15671-2 0  9992
2 59063  97.3891  77.8002 0020067  55.1039 305.2082 15.25483267  8364
SITRO-AIS 25            
1 59066U 24039R   24115.14078732  .00008305  00000+0  80616-3 0  9998
2 59066  95.4009  60.7886 0174476 168.0022 192.5437 14.81941877  8108
SITRO-AIS 26            
1 59067U 24039S   24115.14013294  .00008188  00000+0  79511-3 0  9992
2 59067  95.4009  60.7888 0174279 168.0327 192.5117 14.81952184  8108
SITRO-AIS 27            
1 59068U 24039T   24115.13603184  .00008592  00000+0  83193-3 0  9995
2 59068  95.4010  60.7943 0174085 167.9162 192.6318 14.82074275  8104
SITRO-AIS 28            
1 59071U 24039U   24115.20224450  .00008306  00000+0  80406-3 0  9999
2 59071  95.4011  60.8418 0173942 167.6768 192.8791 14.82107075  8110
BEIJING 1               
1 28890U 05043A   24115.17118908  .00001464  00000+0  29948-3 0  9996
2 28890  98.1916 238.4482 0014298 211.2438 148.7915 14.62254888986005
HUANJING 1A (HJ-1A)     
1 33320U 08041A   24115.20481009  .00004183  00000+0  56221-3 0  9995
2 33320  97.6328 124.8918 0020350 182.7591 177.3513 14.79638106842370
HUANJING 1B (HJ-1B)     
1 33321U 08041B   24115.22103126  .00002944  00000+0  39100-3 0  9999
2 33321  97.6288 129.4477 0037270 230.7926 128.9976 14.80024549842391
YAOGAN-4                
1 33446U 08061A   24114.79016858  .00004037  00000+0  54533-3 0  9997
2 33446  97.8777  47.7213 0016723 102.1981 258.1105 14.79517256829516
DEIMOS-1                
1 35681U 09041A   24115.13312055  .00002047  00000+0  32443-3 0  9991
2 35681  97.6797 299.9595 0001655 145.7961 214.3355 14.73191993791353
UK-DMC 2                
1 35683U 09041C   24115.13968725  .00003302  00000+0  51995-3 0  9992
2 35683  97.7733 265.0405 0001126  97.2089 262.9248 14.73119167791055
RISAT-1                 
1 38248U 12017A   24115.02252642  .00018758  00000+0  80943-3 0  9997
2 38248  97.5263 132.2797 0004908  87.0412 273.1386 15.22567689661355
DMC3-FM1                
1 40715U 15032A   24115.20907251  .00002379  00000+0  29529-3 0  9997
2 40715  97.7577 355.6897 0007245 105.7189 254.4824 14.83524096473570
DMC3-FM2                
1 40716U 15032B   24115.09723994  .00002255  00000+0  28016-3 0  9998
2 40716  97.7629 356.6144 0009109 110.8204 249.3987 14.83527090473559
DMC3-FM3                
1 40717U 15032C   24115.11999567  .00001684  00000+0  21092-3 0  9995
2 40717  97.7677 357.8837 0010627 108.5204 251.7165 14.83488660473561
GSAT0101 (PRN E11)      
1 37846U 11060A   24109.30505053 -.00000105  00000+0  00000+0 0  9998
2 37846  57.1268   3.1532 0004200  16.6746 343.3708  1.70476170 77655
GSAT0102 (PRN E12)      
1 37847U 11060B   24110.69713683 -.00000100  00000+0  00000+0 0  9998
2 37847  57.1276   3.1155 0004650 355.4936 184.7031  1.70475513 77689
GSAT0103 (PRN E19)      
1 38857U 12055A   24114.62352409  .00000079  00000+0  00000+0 0  9991
2 38857  55.3814 123.1033 0006037 275.9769  83.9945  1.70473670 71633
GSAT0104 (PRN E20)      
1 38858U 12055B   24114.49410405  .00000082  00000+0  00000+0 0  9992
2 38858  55.3883 123.1687 0002101 286.5749  73.4433  1.64592175   216
GSAT0201 (PRN E18)      
1 40128U 14050A   24113.57118334 -.00000063  00000+0  00000+0 0  9996
2 40128  49.7161 305.2960 1609310 149.0487 221.5176  1.85519576 63744
GSAT0202 (PRN E14)      
1 40129U 14050B   24110.59574140 -.00000060  00000+0  00000+0 0  9994
2 40129  49.7362 304.4911 1607678 149.7370 220.6141  1.85520280 65858
GSAT0203 (PRN E26)      
1 40544U 15017A   24113.19042777 -.00000090  00000+0  00000+0 0  9997
2 40544  56.9221   2.9896 0002784 298.2057  61.8097  1.70475889 55800
GSAT0204 (PRN E22)      
1 40545U 15017B   24114.03113827 -.00000086  00000+0  00000+0 0  9992
2 40545  56.9282   2.9819 0001883 282.7750  77.2500  1.70475563 18864
GSAT0205 (PRN E24)      
1 40889U 15045A   24114.38593074 -.00000013  00000+0  00000+0 0  9998
2 40889  55.2459 243.2830 0004732  42.8008 317.1935  1.70474023 53635
GSAT0206 (PRN E30)      
1 40890U 15045B   24114.60657320 -.00000012  00000+0  00000+0 0  9999
2 40890  55.2439 243.2723 0002594  44.7181 315.2615  1.70474004 53669
GSAT0209 (PRN E09)      
1 41174U 15079A   24114.18995509  .00000078  00000+0  00000+0 0  9990
2 41174  55.4001 122.8241 0005450 306.8166  53.1755  1.70474538 51391
